[{"OBJECT_NAME":"YAOGAN-43 02B","OBJECT_ID":"2024-156B","EPOCH":"2026-03-09T09:55:42.611232","MEAN_MOTION":15.23399653,"ECCENTRICITY":0.00021542,"INCLINATION":34.9944,"RA_OF_ASC_NODE":105.5294,"ARG_OF_PERICENTER":182.9946,"MEAN_ANOMALY":177.0756,"EPHEMERIS_TYPE":0,"CLASSIFICATION_TYPE":"U","NORAD_CAT_ID":60946,"ELEMENT_SET_NO":999,"REV_AT_EPOCH":8422,"BSTAR":0.00062307708,"MEAN_MOTION_DOT":0.00015184,"MEAN_MOTION_DDOT":0},{"OBJECT_NAME":"SITRO-AIS-63","OBJECT_ID":"2025-313AY","EPOCH":"2026-03-09T22:32:46.298400","MEAN_MOTION":15.23042258,"ECCENTRICITY":0.00086521,"INCLINATION":97.4009,"RA_OF_ASC_NODE":145.3484,"ARG_OF_PERICENTER":354.3541,"MEAN_ANOMALY":5.7597,"EPHEMERIS_TYPE":0,"CLASSIFICATION_TYPE":"U","NORAD_CAT_ID":67294,"ELEMENT_SET_NO":999,"REV_AT_EPOCH":1086,"BSTAR":0.0005301085,"MEAN_MOTION_DOT":0.00012433,"MEAN_MOTION_DDOT":0}]
